{
  "norad_id": 43922,
  "name": "IRIDIUM 180",
  "history": [
    {
      "epoch": "2026-03-28T21:39:06.940224Z",
      "apogee_km": 779.2392157401173,
      "perigee_km": 776.0895182104296,
      "latitude_deg": 4.0634517882344584e-05,
      "longitude_deg": -123.95716406415886,
      "height_km": 780.5000249171621,
      "semi_major_axis_km": 7155.801366975273,
      "eccentricity": 0.00022008,
      "inclination_deg": 86.4006,
      "raan_deg": 27.1377,
      "arg_perigee_deg": 82.2753,
      "mean_anomaly_deg": 277.8693,
      "mean_motion_rev_day": 14.34218588
    },
    {
      "epoch": "2026-03-29T04:20:58.920864Z",
      "apogee_km": 779.2367466264504,
      "perigee_km": 776.0896257045742,
      "latitude_deg": 6.521193224396267e-05,
      "longitude_deg": 135.18468378911328,
      "height_km": 780.4971764875872,
      "semi_major_axis_km": 7155.800186165512,
      "eccentricity": 0.0002199,
      "inclination_deg": 86.4007,
      "raan_deg": 27.0212,
      "arg_perigee_deg": 82.2076,
      "mean_anomaly_deg": 277.937,
      "mean_motion_rev_day": 14.34218943
    },
    {
      "epoch": "2026-03-29T21:05:38.917824Z",
      "apogee_km": 779.241192862476,
      "perigee_km": 776.0869157577363,
      "latitude_deg": -8.359345095330605e-05,
      "longitude_deg": -116.96104903014353,
      "height_km": 780.4937483360721,
      "semi_major_axis_km": 7155.801054310106,
      "eccentricity": 0.0002204,
      "inclination_deg": 86.4007,
      "raan_deg": 26.7298,
      "arg_perigee_deg": 82.0673,
      "mean_anomaly_deg": 278.0772,
      "mean_motion_rev_day": 14.34218682
    },
    {
      "epoch": "2026-03-30T05:27:58.901184Z",
      "apogee_km": 779.2341520407399,
      "perigee_km": 776.0931848953232,
      "latitude_deg": 2.4714479233747156e-05,
      "longitude_deg": 116.96615931194005,
      "height_km": 780.4932481322197,
      "semi_major_axis_km": 7155.800668468031,
      "eccentricity": 0.00021947,
      "inclination_deg": 86.4008,
      "raan_deg": 26.5841,
      "arg_perigee_deg": 82.0292,
      "mean_anomaly_deg": 278.1153,
      "mean_motion_rev_day": 14.34218798
    },
    {
      "epoch": "2026-03-30T13:50:18.879360Z",
      "apogee_km": 779.2293561334791,
      "perigee_km": 776.0972623381258,
      "latitude_deg": -6.40971890486144e-06,
      "longitude_deg": -9.106519332257657,
      "height_km": 780.494100908308,
      "semi_major_axis_km": 7155.800309235802,
      "eccentricity": 0.00021885,
      "inclination_deg": 86.4009,
      "raan_deg": 26.4385,
      "arg_perigee_deg": 82.0506,
      "mean_anomaly_deg": 278.0938,
      "mean_motion_rev_day": 14.34218906
    },
    {
      "epoch": "2026-03-30T22:12:38.873952Z",
      "apogee_km": 779.2260327164777,
      "perigee_km": 776.1012376950957,
      "latitude_deg": 5.890784363154125e-05,
      "longitude_deg": -135.1793605299914,
      "height_km": 780.4917836534855,
      "semi_major_axis_km": 7155.800635205786,
      "eccentricity": 0.00021834,
      "inclination_deg": 86.401,
      "raan_deg": 26.2928,
      "arg_perigee_deg": 81.934,
      "mean_anomaly_deg": 278.2104,
      "mean_motion_rev_day": 14.34218808
    },
    {
      "epoch": "2026-03-31T18:18:14.947200Z",
      "apogee_km": 779.3063192454583,
      "perigee_km": 776.0289607203458,
      "latitude_deg": -3.6446586812671497e-05,
      "longitude_deg": -77.75387525230015,
      "height_km": 780.4788693384766,
      "semi_major_axis_km": 7155.804639982902,
      "eccentricity": 0.000229,
      "inclination_deg": 86.4005,
      "raan_deg": 25.9438,
      "arg_perigee_deg": 81.721,
      "mean_anomaly_deg": 278.4245,
      "mean_motion_rev_day": 14.34217604
    },
    {
      "epoch": "2026-04-01T21:05:42.975168Z",
      "apogee_km": 779.2180727164068,
      "perigee_km": 776.1196087873604,
      "latitude_deg": -5.935241744010376e-05,
      "longitude_deg": -121.18753062379146,
      "height_km": 780.5107479654297,
      "semi_major_axis_km": 7155.805840751883,
      "eccentricity": 0.0002165,
      "inclination_deg": 86.4012,
      "raan_deg": 25.4772,
      "arg_perigee_deg": 82.3768,
      "mean_anomaly_deg": 277.7673,
      "mean_motion_rev_day": 14.34217243
    },
    {
      "epoch": "2026-04-02T20:32:14.951040Z",
      "apogee_km": 779.2124459873903,
      "perigee_km": 776.1182770462701,
      "latitude_deg": -4.26906562470728e-05,
      "longitude_deg": -114.19129921668244,
      "height_km": 780.5157560235258,
      "semi_major_axis_km": 7155.8023615168295,
      "eccentricity": 0.0002162,
      "inclination_deg": 86.4013,
      "raan_deg": 25.0694,
      "arg_perigee_deg": 82.683,
      "mean_anomaly_deg": 277.4611,
      "mean_motion_rev_day": 14.34218289
    },
    {
      "epoch": "2026-04-02T22:12:42.947712Z",
      "apogee_km": 779.211895234439,
      "perigee_km": 776.1184419569563,
      "latitude_deg": -3.5762999093242756e-05,
      "longitude_deg": -139.4059184864307,
      "height_km": 780.5150142371932,
      "semi_major_axis_km": 7155.802168595697,
      "eccentricity": 0.00021615,
      "inclination_deg": 86.4013,
      "raan_deg": 25.0402,
      "arg_perigee_deg": 82.6608,
      "mean_anomaly_deg": 277.4833,
      "mean_motion_rev_day": 14.34218347
    },
    {
      "epoch": "2026-04-03T08:15:30.929472Z",
      "apogee_km": 779.2154921504089,
      "perigee_km": 776.1113059373038,
      "latitude_deg": -2.714281558172606e-05,
      "longitude_deg": 69.30675634828097,
      "height_km": 780.5155125639037,
      "semi_major_axis_km": 7155.800399043856,
      "eccentricity": 0.0002169,
      "inclination_deg": 86.4014,
      "raan_deg": 24.8654,
      "arg_perigee_deg": 82.7712,
      "mean_anomaly_deg": 277.373,
      "mean_motion_rev_day": 14.34218879
    },
    {
      "epoch": "2026-04-04T06:01:34.843008Z",
      "apogee_km": 779.2023579190263,
      "perigee_km": 776.120355566778,
      "latitude_deg": -5.605294318966869e-05,
      "longitude_deg": 101.51777797076659,
      "height_km": 780.5173006673226,
      "semi_major_axis_km": 7155.798356742902,
      "eccentricity": 0.00021535,
      "inclination_deg": 86.4014,
      "raan_deg": 24.4867,
      "arg_perigee_deg": 82.8612,
      "mean_anomaly_deg": 277.2828,
      "mean_motion_rev_day": 14.34219493
    },
    {
      "epoch": "2026-04-05T12:09:58.857408Z",
      "apogee_km": 779.2045426823797,
      "perigee_km": 776.1276904583174,
      "latitude_deg": 3.311063804323349e-05,
      "longitude_deg": 7.65551594780052,
      "height_km": 780.5001643538267,
      "semi_major_axis_km": 7155.803116570349,
      "eccentricity": 0.00021499,
      "inclination_deg": 86.4016,
      "raan_deg": 23.9623,
      "arg_perigee_deg": 82.0267,
      "mean_anomaly_deg": 278.1173,
      "mean_motion_rev_day": 14.34218062
    },
    {
      "epoch": "2026-04-05T20:32:18.845952Z",
      "apogee_km": 779.2000978535334,
      "perigee_km": 776.1316895727095,
      "latitude_deg": 6.166507450811248e-07,
      "longitude_deg": -118.41720712790087,
      "height_km": 780.5002300602091,
      "semi_major_axis_km": 7155.802893713121,
      "eccentricity": 0.0002144,
      "inclination_deg": 86.4016,
      "raan_deg": 23.8167,
      "arg_perigee_deg": 82.0149,
      "mean_anomaly_deg": 278.129,
      "mean_motion_rev_day": 14.34218129
    },
    {
      "epoch": "2026-04-06T04:54:38.848320Z",
      "apogee_km": 779.1883855674741,
      "perigee_km": 776.143734481494,
      "latitude_deg": -1.9942682912174083e-06,
      "longitude_deg": 115.51001376670763,
      "height_km": 780.4981220057239,
      "semi_major_axis_km": 7155.803060024484,
      "eccentricity": 0.00021274,
      "inclination_deg": 86.4017,
      "raan_deg": 23.6711,
      "arg_perigee_deg": 81.8645,
      "mean_anomaly_deg": 278.2792,
      "mean_motion_rev_day": 14.34218079
    },
    {
      "epoch": "2026-04-07T06:01:38.889984Z",
      "apogee_km": 779.1292740087629,
      "perigee_km": 776.209132613315,
      "latitude_deg": -3.635503319327508e-05,
      "longitude_deg": 97.29142998484164,
      "height_km": 780.478572487662,
      "semi_major_axis_km": 7155.806203311038,
      "eccentricity": 0.00020404,
      "inclination_deg": 86.4013,
      "raan_deg": 23.2342,
      "arg_perigee_deg": 80.6073,
      "mean_anomaly_deg": 279.5353,
      "mean_motion_rev_day": 14.34217134
    },
    {
      "epoch": "2026-04-07T17:44:54.890016Z",
      "apogee_km": 779.1258919797556,
      "perigee_km": 776.2149095291288,
      "latitude_deg": -4.424978195907005e-05,
      "longitude_deg": -79.21050767001708,
      "height_km": 780.4732583284565,
      "semi_major_axis_km": 7155.807400754442,
      "eccentricity": 0.0002034,
      "inclination_deg": 86.4013,
      "raan_deg": 23.0303,
      "arg_perigee_deg": 80.317,
      "mean_anomaly_deg": 279.8255,
      "mean_motion_rev_day": 14.34216774
    },
    {
      "epoch": "2026-04-08T12:10:02.917344Z",
      "apogee_km": 779.1355842492303,
      "perigee_km": 776.2037071503546,
      "latitude_deg": 1.865369319004671e-05,
      "longitude_deg": 3.429209536096987,
      "height_km": 780.4985556062531,
      "semi_major_axis_km": 7155.806645699792,
      "eccentricity": 0.00020486,
      "inclination_deg": 86.4015,
      "raan_deg": 22.7099,
      "arg_perigee_deg": 81.4194,
      "mean_anomaly_deg": 278.7234,
      "mean_motion_rev_day": 14.34217001
    },
    {
      "epoch": "2026-04-09T19:58:54.958656Z",
      "apogee_km": 779.1167996176409,
      "perigee_km": 776.2215604372013,
      "latitude_deg": -2.0162776483504516e-05,
      "longitude_deg": -115.64760891369295,
      "height_km": 780.5129176013546,
      "semi_major_axis_km": 7155.806180027421,
      "eccentricity": 0.0002023,
      "inclination_deg": 86.4017,
      "raan_deg": 22.1565,
      "arg_perigee_deg": 81.9011,
      "mean_anomaly_deg": 278.2414,
      "mean_motion_rev_day": 14.34217141
    }
  ]
}